{
  "type": "FeatureCollection",
  "features": [
    {
      "type": "Feature",
      "properties": {
        "norad_id": 36036,
        "name": "SMOS",
        "group": "resource",
        "lat": 7.066817439118982,
        "lon": -8.09191254566339,
        "alt_km": 761.3295543945369,
        "timestamp": "2025-12-11T18:59:45.723029+00:00",
        "meta_object_name": "SMOS",
        "meta_object_id": "2009-059A",
        "meta_epoch": "2025-12-11T06:31:15.053664",
        "meta_mean_motion": 14.39739575,
        "meta_eccentricity": 0.00010984,
        "meta_inclination": 98.438,
        "meta_ra_of_asc_node": 170.3418,
        "meta_arg_of_pericenter": 85.03,
        "meta_mean_anomaly": 275.1013,
        "meta_ephemeris_type": 0,
        "meta_classification_type": "U",
        "meta_norad_cat_id": 36036,
        "meta_element_set_no": 999,
        "meta_rev_at_epoch": 84641,
        "meta_bstar": 0.0002235022,
        "meta_mean_motion_dot": 6.57e-06,
        "meta_mean_motion_ddot": 0,
        "tle_line1": "1 36036U 09059A   25345.27170201  .00000657  00000+0  22350-3 0  9992",
        "tle_line2": "2 36036  98.4380 170.3418 0001098  85.0300 275.1013 14.39739575846415"
      },
      "geometry": {
        "type": "Point",
        "coordinates": [
          -8.09191254566339,
          7.066817439118982
        ]
      }
    },
    {
      "type": "Feature",
      "properties": {
        "norad_id": 36110,
        "name": "YAOGAN-7",
        "group": "resource",
        "lat": -47.440819149083225,
        "lon": 38.70776878079555,
        "alt_km": 634.2672134007598,
        "timestamp": "2025-12-11T18:59:45.723040+00:00",
        "meta_object_name": "YAOGAN-7",
        "meta_object_id": "2009-069A",
        "meta_epoch": "2025-12-11T06:35:22.605216",
        "meta_mean_motion": 14.77729637,
        "meta_eccentricity": 0.00234042,
        "meta_inclination": 98.0302,
        "meta_ra_of_asc_node": 227.0368,
        "meta_arg_of_pericenter": 286.2851,
        "meta_mean_anomaly": 73.5785,
        "meta_ephemeris_type": 0,
        "meta_classification_type": "U",
        "meta_norad_cat_id": 36110,
        "meta_element_set_no": 999,
        "meta_rev_at_epoch": 86187,
        "meta_bstar": 0.00016881762,
        "meta_mean_motion_dot": 1.162e-05,
        "meta_mean_motion_ddot": 0,
        "tle_line1": "1 36110U 09069A   25345.27456719  .00001162  00000+0  16882-3 0  9992",
        "tle_line2": "2 36110  98.0302 227.0368 0023404 286.2851  73.5785 14.77729637861876"
      },
      "geometry": {
        "type": "Point",
        "coordinates": [
          38.70776878079555,
          -47.440819149083225
        ]
      }
    },
    {
      "type": "Feature",
      "properties": {
        "norad_id": 36605,
        "name": "TANDEM-X",
        "group": "resource",
        "lat": -27.111786298590566,
        "lon": -4.975478068810812,
        "alt_km": 514.5896454879221,
        "timestamp": "2025-12-11T18:59:45.723051+00:00",
        "meta_object_name": "TANDEM-X",
        "meta_object_id": "2010-030A",
        "meta_epoch": "2025-12-10T13:04:49.497312",
        "meta_mean_motion": 15.19152954,
        "meta_eccentricity": 0.0001855,
        "meta_inclination": 97.4451,
        "meta_ra_of_asc_node": 349.9572,
        "meta_arg_of_pericenter": 84.2987,
        "meta_mean_anomaly": 275.8459,
        "meta_ephemeris_type": 0,
        "meta_classification_type": "U",
        "meta_norad_cat_id": 36605,
        "meta_element_set_no": 999,
        "meta_rev_at_epoch": 85800,
        "meta_bstar": 0.00014449,
        "meta_mean_motion_dot": 2.969e-05,
        "meta_mean_motion_ddot": 0,
        "tle_line1": "1 36605U 10030A   25344.54501733  .00002969  00000+0  14449-3 0  9990",
        "tle_line2": "2 36605  97.4451 349.9572 0001855  84.2987 275.8459 15.19152954858001"
      },
      "geometry": {
        "type": "Point",
        "coordinates": [
          -4.975478068810812,
          -27.111786298590566
        ]
      }
    },
    {
      "type": "Feature",
      "properties": {
        "norad_id": 36795,
        "name": "CARTOSAT-2B",
        "group": "resource",
        "lat": 27.144040503603712,
        "lon": -141.12548923243287,
        "alt_km": 629.3885567188345,
        "timestamp": "2025-12-11T18:59:45.723063+00:00",
        "meta_object_name": "CARTOSAT-2B",
        "meta_object_id": "2010-035A",
        "meta_epoch": "2025-12-11T06:56:32.788032",
        "meta_mean_motion": 14.78785243,
        "meta_eccentricity": 0.00129153,
        "meta_inclination": 97.785,
        "meta_ra_of_asc_node": 34.3665,
        "meta_arg_of_pericenter": 81.5625,
        "meta_mean_anomaly": 278.705,
        "meta_ephemeris_type": 0,
        "meta_classification_type": "U",
        "meta_norad_cat_id": 36795,
        "meta_element_set_no": 999,
        "meta_rev_at_epoch": 83208,
        "meta_bstar": 0.00013815019,
        "meta_mean_motion_dot": 9.66e-06,
        "meta_mean_motion_ddot": 0,
        "tle_line1": "1 36795U 10035A   25345.28926838  .00000966  00000+0  13815-3 0  9995",
        "tle_line2": "2 36795  97.7850  34.3665 0012915  81.5625 278.7050 14.78785243832089"
      },
      "geometry": {
        "type": "Point",
        "coordinates": [
          -141.12548923243287,
          27.144040503603712
        ]
      }
    },
    {
      "type": "Feature",
      "properties": {
        "norad_id": 36834,
        "name": "YAOGAN-10",
        "group": "resource",
        "lat": -32.13313178236314,
        "lon": -179.39357426095017,
        "alt_km": 621.637891167451,
        "timestamp": "2025-12-11T18:59:45.723073+00:00",
        "meta_object_name": "YAOGAN-10",
        "meta_object_id": "2010-038A",
        "meta_epoch": "2025-12-11T06:59:50.483328",
        "meta_mean_motion": 14.84597537,
        "meta_eccentricity": 0.00014944,
        "meta_inclination": 97.9142,
        "meta_ra_of_asc_node": 5.1228,
        "meta_arg_of_pericenter": 83.4347,
        "meta_mean_anomaly": 338.5738,
        "meta_ephemeris_type": 0,
        "meta_classification_type": "U",
        "meta_norad_cat_id": 36834,
        "meta_element_set_no": 999,
        "meta_rev_at_epoch": 82932,
        "meta_bstar": 0.0003656173,
        "meta_mean_motion_dot": 3.035e-05,
        "meta_mean_motion_ddot": 0,
        "tle_line1": "1 36834U 10038A   25345.29155652  .00003035  00000+0  36562-3 0  9995",
        "tle_line2": "2 36834  97.9142   5.1228 0001494  83.4347 338.5738 14.84597537829327"
      },
      "geometry": {
        "type": "Point",
        "coordinates": [
          -179.39357426095017,
          -32.13313178236314
        ]
      }
    },
    {
      "type": "Feature",
      "properties": {
        "norad_id": 37216,
        "name": "COSMO-SKYMED 4",
        "group": "resource",
        "lat": 35.635964272426726,
        "lon": -7.172568569414871,
        "alt_km": 619.7185779543461,
        "timestamp": "2025-12-11T18:59:45.723085+00:00",
        "meta_object_name": "COSMO-SKYMED 4",
        "meta_object_id": "2010-060A",
        "meta_epoch": "2025-12-11T07:00:26.965728",
        "meta_mean_motion": 14.8216656,
        "meta_eccentricity": 0.00014183,
        "meta_inclination": 97.8808,
        "meta_ra_of_asc_node": 166.6369,
        "meta_arg_of_pericenter": 77.5185,
        "meta_mean_anomaly": 282.6187,
        "meta_ephemeris_type": 0,
        "meta_classification_type": "U",
        "meta_norad_cat_id": 37216,
        "meta_element_set_no": 999,
        "meta_rev_at_epoch": 81673,
        "meta_bstar": 0.00012563991,
        "meta_mean_motion_dot": 9.48e-06,
        "meta_mean_motion_ddot": 0,
        "tle_line1": "1 37216U 10060A   25345.29197877  .00000948  00000+0  12564-3 0  9996",
        "tle_line2": "2 37216  97.8808 166.6369 0001418  77.5185 282.6187 14.82166560816733"
      },
      "geometry": {
        "type": "Point",
        "coordinates": [
          -7.172568569414871,
          35.635964272426726
        ]
      }
    },
    {
      "type": "Feature",
      "properties": {
        "norad_id": 37387,
        "name": "RESOURCESAT-2",
        "group": "resource",
        "lat": -44.281115083418875,
        "lon": 58.02410434982382,
        "alt_km": 826.5859354517279,
        "timestamp": "2025-12-11T18:59:45.723096+00:00",
        "meta_object_name": "RESOURCESAT-2",
        "meta_object_id": "2011-015A",
        "meta_epoch": "2025-12-11T05:41:36.360096",
        "meta_mean_motion": 14.21596385,
        "meta_eccentricity": 0.0006506,
        "meta_inclination": 98.7879,
        "meta_ra_of_asc_node": 48.7958,
        "meta_arg_of_pericenter": 46.5001,
        "meta_mean_anomaly": 313.6716,
        "meta_ephemeris_type": 0,
        "meta_classification_type": "U",
        "meta_norad_cat_id": 37387,
        "meta_element_set_no": 999,
        "meta_rev_at_epoch": 75947,
        "meta_bstar": 0.00013202376,
        "meta_mean_motion_dot": 2.45e-06,
        "meta_mean_motion_ddot": 0,
        "tle_line1": "1 37387U 11015A   25345.23722639  .00000245  00000+0  13202-3 0  9990",
        "tle_line2": "2 37387  98.7879  48.7958 0006506  46.5001 313.6716 14.21596385759475"
      },
      "geometry": {
        "type": "Point",
        "coordinates": [
          58.02410434982382,
          -44.281115083418875
        ]
      }
    }
  ]
}